#dP2021 11 25 18  0  0.00000000      96 __u+U ITR00 EXT  IAC
## 2185 410400.00000000   900.00000000 59543 0.7500000000000
+  112   C06C07C08C09C10C11C12C13C14C16C19C20C21C22C23C24C25
+        C26C27C28C29C30C32C33C34C35C36C37C38C39C40C41C42C43
+        C44C45C46E01E02E03E04E05E07E08E09E11E12E13E14E15E18
+        E19E21E24E25E27E30E31E33E36G01G02G03G04G05G06G07G08
+        G09G10G12G13G14G15G16G17G18G19G20G21G22G23G24G25G26
+        G27G28G29G30G31G32R01R02R03R04R05R07R08R09R11R12R13
+        R14R15R16R17R18R19R20R21R22R24  0  0  0  0  0  0  0
++         9  9  8  9  8  8  7 11  9  9  8  9  7  7  9  7 10
++         9  8 10  9  9  9  9  9  7 10  9 11 10 10 10  9  8
++         8 10 10  7  9  6  7  9  8  9  7  8  9  8  7  8  7
++         6  7  9  8  8  9  9 10  7  7  8  8  7  7  6  7  7
++         7  6  7  7  8  7  8  8  8  8  7  7  9  7  7  7  7
++         6  7  8  8  7  7  8  8  8  7  7  8  8  8 10  9  9
++        10  6  9  7  6  9  9  7  7  9  0  0  0  0  0  0  0
%c M  cc GPS ccc cccc cccc cccc cccc ccccc ccccc ccccc ccccc
%c cc cc ccc ccc cccc cccc cccc cccc ccccc ccccc ccccc ccccc
%f  0.0000000  0.000000000  0.00000000000  0.000000000000000
%f  0.0000000  0.000000000  0.00000000000  0.000000000000000
%i    0    0    0    0      0      0      0      0         0
%i    0    0    0    0      0      0      0      0         0
/* IAC                                ULTRA-RAPID PREDICTION
/* S/V CLOCKS ARE ALIGNED TO GNSS TIME                      
/* G:C1WC2W R:C1PC2P E:C1XC5X C:C2IC6I J:C1CC2S             
/* PCV:IGS14_2178 OL/AL:FES2004  NONE     YN ORB:CoN CLK:CoN
*  2021 11 26  6  0  0.00000000
PC06  -4278.386024  24749.318955  33868.644222    543.067004
PC07 -17747.804859  34800.389094 -16025.021834    193.919464
PC08  -2538.358420  39238.003269 -15019.706291   -736.877290
PC09   3320.586166  27221.603103  32451.024569   -297.871602
PC10 -10456.473220  34623.907904 -21787.578813     13.957655
PC11 -10712.618821 -18234.140258  18300.575490    712.777515
PC12   8806.067782 -12795.821371  23224.701404    719.616538
PC13   1193.788868  40808.705415  -9791.549075    487.035423
PC14   -125.865588 -18195.599000 -21130.104885    519.941407
PC16  -9793.170550  22165.875766  34628.877827   -708.300620
PC19   9889.152050  12383.403855  22985.744381    930.469020
PC20  -8001.249615  20631.468272  17021.089773   -791.486061
PC21  22166.388469 -16933.433975   -475.568855   -940.221182
PC22  22727.261595  -3318.626886  15828.343033   -972.214431
PC23 -16399.146188  -5561.299369  21889.684174   -963.840094
PC24   1733.113676 -27093.593861  -6538.240472   -957.257573
PC25 -11492.386758 -22598.213946  11683.902096   -819.109303
PC26  11772.779079 -16306.354834 -19370.770489    816.495886
PC27 -17728.142095   7361.591343 -20265.387326    635.473275
PC28 -26238.448355  -6797.341577  -6652.289794      1.732370
PC29  19900.591228  16236.837562 -10913.843840    479.383226
PC30   1037.257480  16977.170215 -22127.594025    487.232457
PC32 -22064.897484  17082.815776    424.093303   -959.451101
PC33  -9901.299237 -12401.108457 -22957.805824   -967.458812
PC34  -1955.827954 -17233.429365  21852.343867   -528.452578
PC35  26514.188725   6226.772447   6151.978357     18.036700
PC36  10721.354315  23138.305297 -11296.309261   -814.167464
PC37 -12628.731236  14956.723949  19894.095706   -898.710067
PC38  -8866.626642  34621.074339 -22219.222112    192.196937
PC39 -14661.973636  20160.961116  33975.474485     34.138895
PC40 -25711.109191  30422.163745 -14050.033776    221.091872
PC41 -22588.540467   3067.939619 -16048.778795   -915.499259
PC42   8831.534790 -20787.818451 -16347.789044   -939.142812
PC43 -19342.812011 -16559.298406  11394.407190   -958.321374
PC44  17722.869981  -7901.848734  20060.802585    478.174071
PC45  16293.579211   5283.235105 -22022.363652    610.812718
PC46   -817.809783  27347.287747   5380.236127    -28.260582
PE01  12439.265937 -26783.753804  -2102.727172   -525.071932
PE02 -12353.691661  26814.162596   1969.738075    262.801678
PE03 -14068.080524  16434.327477  20197.308739   -499.940726
PE04  -7994.699966 -15806.647582 -23718.386940   -907.691693
PE05 -28256.779868   7420.619576   4752.945255   -231.103460
PE07  25817.351061   5795.443713  13258.028549   -611.079549
PE08   8485.044417  15508.986897  23731.924942   5898.883327
PE09 -25955.529664  -5479.603633 -13150.885791   5450.796927
PE11 -22097.632965 -16353.742129 -10969.855907   5012.492238
PE12 -12891.596360 -25226.744757   8569.088868   4891.262146
PE13  22043.986374  16753.044215  10472.039824    424.076251
PE14 -29957.164685   1404.909510  -4297.976826  -1653.364478
PE15  12939.558491  25172.316025  -8648.044263    778.802109
PE18  24657.156360   7558.353529  -6467.466383  -1817.794031
PE19  16539.641989 -15674.062076 -18899.821314    436.948600
PE21  18837.199141 -13910.047057 -18108.334597   -701.741211
PE24 -14221.442625  -8977.823624  24352.730909  -1246.695598
PE25 -18859.821132  13652.169053  18282.272223   -554.833030
PE27  14776.457876   7656.544663 -24470.487922   -173.254015
PE30   1096.121897  25182.725217 -15505.409759    -60.466299
PE31  -2059.794419 -24566.075126  16402.565887   -488.560231
PE33   3771.575058 -18727.515422  22619.521502   -462.132214
PE36 -18147.139806   1460.385509 -23331.423268   -295.351493
PG01  17654.982994   6730.440242  18533.523229    500.554474
PG02 -14745.421270 -22015.711790    -79.060816   -643.479060
PG03  17767.410081  -4388.838897  19107.087822    -23.417698
PG04  26576.608114    472.153304  -1046.134581   -200.897480
PG05 -11236.933716 -11020.542868 -21541.526556    -62.337867
PG06  -3424.927935 -23173.576415  12526.700239    127.117308
PG07  11717.636980 -10049.140410 -21200.381179    283.133136
PG08  23772.877530   6818.525959 -10130.097517    -45.655073
PG09  22354.442802  -8457.341192 -11690.647811   -361.359472
PG10 -11027.742447  23719.557058   3702.407610   -254.599126
PG12 -17399.572789   1462.464475  19718.517091   -131.819455
PG13 -17788.136577 -13056.561801 -15048.822987    220.235991
PG14  12231.010559 -23289.126148   3431.895021    -44.909123
PG15 -24526.777200  -4712.828001  -9905.993557   -103.695195
PG16   7656.109586  14206.837929 -21256.901893   -430.458734
PG17  10801.593028 -13196.056577  20810.845168    539.011599
PG18 -10694.213953  11275.921627 -21530.843875    289.680106
PG19   1088.746185 -14662.729663  21859.305672     84.186109
PG20  -4582.388757 -20548.659460 -16363.879680    517.937204
PG21  19792.130046  13465.157659  12788.898346    152.089442
PG22  15312.216600   4333.847613  21421.994277   -455.884368
PG23 -16730.276656  19062.352459  -7755.461688     28.672861
PG24 -19710.972386  -9864.269050  14825.627680    270.525137
PG25 -18523.159518  13026.399725  13384.340926    246.417590
PG26  -1813.745866  23194.046580 -12601.663582    159.055256
PG27  15690.494511  12327.798709 -17899.248280   -223.742054
PG28   7359.618526 -23267.253837  11280.207499    455.385785
PG29 -24961.897260   3548.135727  -8491.948119   -445.738350
PG30   4094.695886 -19481.948736 -17398.755308   -494.462678
PG31   4589.808892  23841.229692  10076.564607   -152.030181
PG32  -5871.959410  14939.737943  21248.785948    -26.818377
PR01   9554.453630 -14888.610247 -18380.054393     88.616760
PR02 -10397.589110  -6664.795625 -22274.284508    501.313587
PR03 -22137.688286   4614.245473 -11707.634171     47.090440
PR04 -21285.375946  13032.581831   5253.247982    116.002883
PR05  -8686.028736  14209.238148  19313.384481     83.115885
PR07  22421.538535  -5013.603161  11167.215518    -39.698505
PR08  21270.428072 -13095.984316  -5198.083005    -62.221256
PR09   6860.906714  18779.051681 -15867.023790     25.558421
PR11   9024.525336 -16465.078091 -17249.795443     47.836802
PR12   1874.342410 -25445.924192   -526.679602    281.501554
PR13  -6261.569428 -19465.834820  15238.005689    -64.034485
PR14 -11047.837512  -1185.734009  22973.080995     71.405111
PR15  -9162.000935  16913.590942  16771.739180     99.969595
PR16   -616.651483  25417.341127   -758.015345    -25.684986
PR17 -21449.964041  -8701.236979 -10753.973184    478.201237
PR18 -12621.176042   3223.558988 -21901.328614     98.442534
PR19   1463.135326  13067.573113 -21849.539846   -168.398797
PR20  17620.681997  16938.250613  -7347.594398    -60.055326
PR21  21042.255708   7898.401744  12036.924389   -257.498499
PR22  11958.018685  -3733.958931  22228.150025   -147.563394
PR24 -18225.033017 -16584.427847   6657.944571     68.538159
EOF
